COSMOS 1933             
1 18958U 88020A   25342.99329007  .00005273  00000+0  26492-3 0  9996
2 18958  82.5136 340.5805 0005480 138.1939 221.9714 15.17061583 36477
SL-3 R/B                
1 19046U 88032B   25342.90828255  .00006648  00000+0  32107-3 0  9995
2 19046  97.5081 321.6551 0026299 186.3738 173.7166 15.18679995 38326
SL-16 R/B               
1 19120U 88039B   25342.94194581  .00000153  00000+0  94804-4 0  9995
2 19120  71.0153 260.4282 0019807 122.7204 237.5834 14.19596056945500
COSMOS 1953             
1 19210U 88050A   25342.77233089  .00008920  00000+0  33586-3 0  9995
2 19210  82.5091 249.5616 0013860  83.5354 276.7462 15.26867988 23907
SL-8 R/B                
1 19257U 88053B   25342.99657176  .00000433  00000+0  14906-3 0  9996
2 19257  74.0477 279.6181 0019064 125.1565 307.8030 14.38855341963555
COSMOS 1975             
1 19573U 88093A   25342.71651146  .00009601  00000+0  36708-3 0  9992
2 19573  82.5202 208.8561 0012681 125.0810 235.1620 15.26382197  5526
SL-14 R/B               
1 19574U 88093B   25342.94709907  .00000837  00000+0  93852-4 0  9993
2 19574  82.5301 127.2263 0020256 342.3937 139.2707 14.85542307987569
SL-16 R/B               
1 19650U 88102B   25342.71474724 -.00000138  00000+0 -45808-4 0  9994
2 19650  70.9998 342.9125 0013125 158.7434 201.4237 14.16136600914017
INTERCOSMOS 24          
1 20261U 89080A   25342.93074211  .00001455  00000+0  42220-3 0  9996
2 20261  82.6043 163.4294 1188784 143.3533 225.5192 12.59428272655378
SL-14 R/B               
1 20262U 89080C   25342.98405097  .00000630  00000+0  18393-3 0  9990
2 20262  82.5934 231.4313 1230712  32.1692 334.8779 12.50408873648817
DELTA 1 R/B             
1 20323U 89089B   25342.63892742  .00000722  00000+0  18706-3 0  9996
2 20323  97.0756 199.5264 0070355  51.0398 309.7041 14.50567796882538
ARIANE 40 R/B           
1 20443U 90005H   25342.77803278  .00000687  00000+0  23251-3 0  9991
2 20443  98.3247  41.0678 0011196 116.5051 243.7287 14.39794841879727
